NORAD_CAT_ID,OBJECT_NAME,OBJECT_TYPE,EPOCH,MEAN_MOTION,ECCENTRICITY,INCLINATION,RA_OF_ASC_NODE,ARG_OF_PERICENTER,MEAN_ANOMALY,BSTAR,MEAN_MOTION_DOT,MEAN_MOTION_DDOT,TLE_LINE0,TLE_LINE1,TLE_LINE2,SEMIMAJOR_AXIS,PERIOD,APOGEE,PERIGEE,DECAYED
53798.0,STARLINK-4712,PAYLOAD,2024-05-08 22:46:20,15.08848079,0.0001335,53.2181,40.308,90.4748,269.6397,0.00025196,3.725e-05,0.0,0 STARLINK-4712,1 53798U 22111AB  24129.94885150  .00003725  00000-0  25196-3 0  9990,2 53798  53.2181  40.3080 0001335  90.4748 269.6397 15.08848079 92578,6917.856,95.437,540.644,538.797,0.0
53798.0,STARLINK-4712,PAYLOAD,2024-05-09 03:32:29,15.08859268,0.0001299,53.218,39.4149,102.585,257.5288,0.00031792,4.778e-05,0.0,0 STARLINK-4712,1 53798U 22111AB  24130.14756381  .00004778  00000-0  31792-3 0  9995,2 53798  53.2180  39.4149 0001299 102.5850 257.5288 15.08859268 91790,6917.821,95.436,540.585,538.788,0.0
53798.0,STARLINK-4712,PAYLOAD,2024-05-09 11:29:26,15.08838423,0.0001402,53.2181,37.9305,85.8352,274.28,0.00017493,2.497e-05,0.0,0 STARLINK-4712,1 53798U 22111AB  24130.47877636  .00002497  00000-0  17493-3 0  9996,2 53798  53.2181  37.9305 0001402  85.8352 274.2800 15.08838423 91846,6917.885,95.438,540.72,538.78,0.0
53798.0,STARLINK-4712,PAYLOAD,2024-05-09 22:37:08,15.08838533,0.0001074,53.2185,35.8488,94.0112,266.1003,0.00024971,3.688e-05,0.0,0 STARLINK-4712,1 53798U 22111AB  24130.94245833  .00003688  00000-0  24971-3 0  9998,2 53798  53.2185  35.8488 0001074  94.0112 266.1003 15.08838533 92725,6917.885,95.438,540.493,539.007,0.0
53798.0,STARLINK-4712,PAYLOAD,2024-05-10 03:23:17,15.08843665,0.0001451,53.2181,34.9557,101.4742,258.6414,0.00021783,3.181e-05,0.0,0 STARLINK-4712,1 53798U 22111AB  24131.14117653  .00003181  00000-0  21783-3 0  9995,2 53798  53.2181  34.9557 0001451 101.4742 258.6414 15.08843665 92756,6917.869,95.437,540.738,538.73,0.0
53798.0,STARLINK-4712,PAYLOAD,2024-05-10 20:52:32,15.08846883,0.000145,53.2157,31.6858,100.3766,259.7389,0.000241,3.55e-05,0.0,0 STARLINK-4712,1 53798U 22111AB  24131.86981619  .00003550  00000-0  24100-3 0  9991,2 53798  53.2157  31.6858 0001450 100.3766 259.7389 15.08846883 92051,6917.859,95.437,540.727,538.721,0.0
53798.0,STARLINK-4712,PAYLOAD,2024-05-11 03:14:03,15.08874214,0.0001053,53.218,30.4934,106.9999,253.1108,0.00066161,0.00010267,0.0,0 STARLINK-4712,1 53798U 22111AB  24132.13476103  .00010267  00000-0  66161-3 0  9995,2 53798  53.2180  30.4934 0001053 106.9999 253.1108 15.08874214 92098,6917.776,95.435,540.369,538.912,0.0
53798.0,STARLINK-4712,PAYLOAD,2024-05-11 20:43:15,15.08827203,7.8e-05,53.2177,27.224,109.3878,250.7198,-0.0026065,-0.00041516,0.0,0 STARLINK-4712,1 53798U 22111AB  24132.86337737 -.00041516  00000-0 -26065-2 0  9995,2 53798  53.2177  27.2240 0000780 109.3878 250.7198 15.08827203 92208,6917.92,95.438,540.324,539.245,0.0
53798.0,STARLINK-4712,PAYLOAD,2024-05-11 22:18:40,15.08807879,0.0001746,53.2174,26.9272,104.8407,255.2778,-0.0033502,-0.00053167,0.0,0 STARLINK-4712,1 53798U 22111AB  24132.92963000 -.00053167  00000-0 -33502-2 0  9999,2 53798  53.2174  26.9272 0001746 104.8407 255.2778 15.08807879 93029,6917.979,95.44,541.051,538.636,0.0
53798.0,STARLINK-4712,PAYLOAD,2024-05-11 23:54:03,15.08800685,0.0001377,53.2173,26.6297,88.7776,271.3373,-0.0032582,-0.00051714,0.0,0 STARLINK-4712,1 53798U 22111AB  24132.99587371 -.00051714  00000-0 -32582-2 0  9992,2 53798  53.2173  26.6297 0001377  88.7776 271.3373 15.08800685 92220,6918.001,95.44,540.818,538.913,0.0
53798.0,STARLINK-4712,PAYLOAD,2024-05-12 09:26:24,15.08778382,0.0001282,53.2174,24.8464,89.7551,270.3588,-0.0019225,-0.00030703,0.0,0 STARLINK-4712,1 53798U 22111AB  24133.39333673 -.00030703  00000-0 -19225-2 0  9995,2 53798  53.2174  24.8464 0001282  89.7551 270.3588 15.08778382 93095,6918.069,95.441,540.821,539.047,0.0
53798.0,STARLINK-4712,PAYLOAD,2024-05-12 20:34:07,15.08811465,0.000152,53.2181,22.7638,105.5101,254.6059,0.00023706,3.484e-05,0.0,0 STARLINK-4712,1 53798U 22111AB  24133.85702798  .00003484  00000-0  23706-3 0  9998,2 53798  53.2181  22.7638 0001520 105.5101 254.6059 15.08811465 92352,6917.968,95.439,540.884,538.781,0.0
53798.0,STARLINK-4712,PAYLOAD,2024-05-12 22:09:31,15.0879533,0.0001342,53.2182,22.4659,104.4862,255.6279,0.0018307,0.00028932,0.0,0 STARLINK-4712,1 53798U 22111AB  24133.92327841  .00028932  00000-0  18307-2 0  9993,2 53798  53.2182  22.4659 0001342 104.4862 255.6279 15.08795330 93175,6918.017,95.44,540.81,538.954,0.0
53798.0,STARLINK-4712,PAYLOAD,2024-05-12 23:44:54,15.08800225,0.0001327,53.2174,22.1715,94.7868,265.3276,0.0019837,0.00031389,0.0,0 STARLINK-4712,1 53798U 22111AB  24133.98952170  .00031389  00000-0  19837-2 0  9997,2 53798  53.2174  22.1715 0001327  94.7868 265.3276 15.08800225 92372,6918.002,95.44,540.785,538.949,0.0
53798.0,STARLINK-4712,PAYLOAD,2024-05-13 09:17:13,15.08827353,0.000151,53.2168,20.3866,102.4457,257.6704,0.0019316,0.00030577,0.0,0 STARLINK-4712,1 53798U 22111AB  24134.38696522  .00030577  00000-0  19316-2 0  9998,2 53798  53.2168  20.3866 0001510 102.4457 257.6704 15.08827353 93245,6917.919,95.438,540.829,538.739,0.0
53798.0,STARLINK-4712,PAYLOAD,2024-05-14 02:46:26,15.08881394,0.0001333,53.2162,17.1148,100.7938,259.3204,0.00099719,0.00015636,0.0,0 STARLINK-4712,1 53798U 22111AB  24135.11558590  .00015636  00000-0  99719-3 0  9997,2 53798  53.2162  17.1148 0001333 100.7938 259.3204 15.08881394 92545,6917.754,95.435,540.541,538.697,0.0
53798.0,STARLINK-4712,PAYLOAD,2024-05-14 09:07:59,15.08860856,0.0002678,53.215,15.9226,82.1545,277.9751,4.6828e-06,-2.14e-06,0.0,0 STARLINK-4712,1 53798U 22111AB  24135.38054958 -.00000214  00000-0  46828-5 0  9997,2 53798  53.2150  15.9226 0002678  82.1545 277.9751 15.08860856 92582,6917.817,95.436,541.534,537.829,0.0
53798.0,STARLINK-4712,PAYLOAD,2024-05-14 21:51:04,15.08855275,0.0001647,53.217,13.5422,91.9367,268.1814,0.00019118,2.757e-05,0.0,0 STARLINK-4712,1 53798U 22111AB  24135.91046315  .00002757  00000-0  19118-3 0  9997,2 53798  53.2170  13.5422 0001647  91.9367 268.1814 15.08855275 93471,6917.834,95.437,540.838,538.559,0.0
53798.0,STARLINK-4712,PAYLOAD,2024-05-15 08:58:45,15.08850688,0.0001487,53.2159,11.4638,89.0703,271.0459,1.4164e-05,-6.3e-07,0.0,0 STARLINK-4712,1 53798U 22111AB  24136.37414262 -.00000063  00000-0  14164-4 0  9994,2 53798  53.2159  11.4638 0001487  89.0703 271.0459 15.08850688 92737,6917.848,95.437,540.741,538.684,0.0
53798.0,STARLINK-4712,PAYLOAD,2024-05-15 21:41:50,15.08853179,0.0001487,53.2142,9.0861,90.325,269.7913,0.00015909,2.246e-05,0.0,0 STARLINK-4712,1 53798U 22111AB  24136.90405999  .00002246  00000-0  15909-3 0  9991,2 53798  53.2142   9.0861 0001487  90.3250 269.7913 15.08853179 93628,6917.84,95.437,540.734,538.676,0.0
53798.0,STARLINK-4712,PAYLOAD,2024-05-16 00:52:36,15.08865313,0.0001572,53.2176,8.4886,89.955,270.1622,0.00053119,8.182e-05,0.0,0 STARLINK-4712,1 53798U 22111AB  24137.03653539  .00008182  00000-0  53119-3 0  9991,2 53798  53.2176   8.4886 0001572  89.9550 270.1622 15.08865313 92835,6917.803,95.436,540.755,538.581,0.0
53798.0,STARLINK-4712,PAYLOAD,2024-05-16 08:49:32,15.08847667,0.0001164,53.2167,7.0016,133.6923,226.4166,9.5626e-05,1.235e-05,0.0,0 STARLINK-4712,1 53798U 22111AB  24137.36773676  .00001235  00000-0  95626-4 0  9994,2 53798  53.2167   7.0016 0001164 133.6923 226.4166 15.08847667 92887,6917.857,95.437,540.527,538.917,0.0
53798.0,STARLINK-4712,PAYLOAD,2024-05-16 21:32:37,15.08847252,0.0001467,53.2166,4.6242,102.7416,257.374,0.00011748,1.583e-05,0.0,0 STARLINK-4712,1 53798U 22111AB  24137.89765746  .00001583  00000-0  11748-3 0  9999,2 53798  53.2166   4.6242 0001467 102.7416 257.3740 15.08847252 93770,6917.858,95.437,540.738,538.708,0.0
53798.0,STARLINK-4712,PAYLOAD,2024-05-17 08:40:19,15.08839862,0.0001166,53.2169,2.5437,103.752,256.3602,4.9142e-06,-2.1e-06,0.0,0 STARLINK-4712,1 53798U 22111AB  24138.36133993 -.00000210  00000-0  49142-5 0  9993,2 53798  53.2169   2.5437 0001166 103.7520 256.3602 15.08839862 93032,6917.881,95.438,540.552,538.939,0.0
53798.0,STARLINK-4712,PAYLOAD,2024-05-17 21:23:25,15.08831816,0.0001944,53.2168,0.1648,89.713,270.4085,-1.8825e-05,-5.88e-06,0.0,0 STARLINK-4712,1 53798U 22111AB  24138.89127012 -.00000588  00000-0 -18825-4 0  9998,2 53798  53.2168   0.1648 0001944  89.7130 270.4085 15.08831816 93115,6917.905,95.438,541.115,538.426,0.0
53798.0,STARLINK-4712,PAYLOAD,2024-05-18 21:14:11,15.08871589,0.0001199,53.2159,355.7029,93.2894,266.8235,0.00079289,0.00012364,0.0,0 STARLINK-4712,1 53798U 22111AB  24139.88485465  .00012364  00000-0  79289-3 0  9990,2 53798  53.2159 355.7029 0001199  93.2894 266.8235 15.08871589 93269,6917.784,95.436,540.478,538.819,0.0
53798.0,STARLINK-4712,PAYLOAD,2024-05-19 00:24:57,15.08874209,9.41e-05,53.2168,355.1091,89.1132,270.9968,0.00079307,0.00012368,0.0,0 STARLINK-4712,1 53798U 22111AB  24140.01733025  .00012368  00000-0  79307-3 0  9990,2 53798  53.2168 355.1091 0000941  89.1132 270.9968 15.08874209 94098,6917.776,95.435,540.292,538.99,0.0
53798.0,STARLINK-4712,PAYLOAD,2024-05-19 21:05:00,15.0882119,0.0001234,53.2178,351.2463,80.3151,279.7981,-0.00038878,-6.467e-05,0.0,0 STARLINK-4712,1 53798U 22111AB  24140.87847454 -.00006467  00000-0 -38878-3 0  9999,2 53798  53.2178 351.2463 0001234  80.3151 279.7981 15.08821190 93417,6917.938,95.439,540.657,538.949,0.0
53798.0,STARLINK-4712,PAYLOAD,2024-05-20 12:58:51,15.08834748,8.83e-05,53.2164,348.2681,59.8866,300.2213,-0.00014267,-2.557e-05,0.0,0 STARLINK-4712,1 53798U 22111AB  24141.54087707 -.00002557  00000-0 -14267-3 0  9993,2 53798  53.2164 348.2681 0000883  59.8866 300.2213 15.08834748 93515,6917.896,95.438,540.372,539.151,0.0
53798.0,STARLINK-4712,PAYLOAD,2024-05-20 19:20:23,15.08842824,0.0001206,53.217,347.087,77.0377,283.0749,5.3557e-05,5.65e-06,0.0,0 STARLINK-4712,1 53798U 22111AB  24141.80583080  .00000565  00000-0  53557-4 0  9998,2 53798  53.2170 347.0870 0001206  77.0377 283.0749 15.08842824 93558,6917.872,95.437,540.571,538.902,0.0
